*******************************************************************************
JPL/HORIZONS               1186 Turnera (1929 PL)          2023-Sep-04 11:10:42
Rec #:    1186 (+COV) Soln.date: 2023-Aug-21_17:31:37  # obs: 11627 (1929-2023)
 
IAU76/J2000 helio. ecliptic osc. elements (au, days, deg., period=Julian yrs):
 
  EPOCH=  2457571.5 ! 2016-Jul-02.00 (TDB)         Residual RMS= .26081
   EC= .1030522648073414   QR= 2.711354562096518   TP= 2456651.1052528997
   OM= 43.05216023060121   W=  294.3453232289366   IN= 10.73831307496755
   A= 3.0228679506216      MA= 172.6034376737799   ADIST= 3.334381339146683
   PER= 5.25578            N= .187531967           ANGMOM= .029749019
   DAN= 2.86889            DDN= 3.12346            L= 337.7798685
   B= -9.7735901           MOID= 1.72435999        TP= 2013-Dec-24.6052528997
 
Asteroid physical parameters (km, seconds, rotational period in hours):
   GM= n.a.                RAD= 17.145             ROTPER= 12.085
   H= 9.88                 G= .150                 B-V= .790
                           ALBEDO= .240            STYP= Sq

ASTEROID comments: 
1: soln ref.= JPL#67, OCC=0
2: source=ORB
*******************************************************************************


*******************************************************************************
Ephemeris / API_USER Mon Sep  4 11:10:42 2023 Pasadena, USA      / Horizons
*******************************************************************************
Target body name: 1186 Turnera (1929 PL)          {source: JPL#67}
Center body name: Solar System Barycenter (0)     {source: DE441}
Center-site name: BODY CENTER
*******************************************************************************
Start time      : A.D. 2023-Aug-12 00:00:00.0000 TDB
Stop  time      : A.D. 2023-Aug-13 00:00:00.0000 TDB
Step-size       : 2880 minutes
*******************************************************************************
Center geodetic : 0.0, 0.0, 0.0                   {E-lon(deg),Lat(deg),Alt(km)}
Center cylindric: 0.0, 0.0, 0.0                   {E-lon(deg),Dxy(km),Dz(km)}
Center radii    : (undefined)
Small perturbers: Yes                             {source: SB441-N16}
Output units    : KM-S
Calendar mode   : Mixed Julian/Gregorian
Output type     : GEOMETRIC cartesian states
Output format   : 2 (position and velocity)
Reference frame : Ecliptic of J2000.0
*******************************************************************************
Initial IAU76/J2000 heliocentric ecliptic osculating elements (au, days, deg.):
  EPOCH=  2457571.5 ! 2016-Jul-02.00 (TDB)         Residual RMS= .26081        
   EC= .1030522648073414   QR= 2.711354562096518   TP= 2456651.1052528997      
   OM= 43.05216023060121   W=  294.3453232289366   IN= 10.73831307496755       
  Equivalent ICRF heliocentric cartesian coordinates (au, au/d):
   X=-2.886393094750195E+00  Y= 1.194291564976887E+00  Z= 1.160297014654123E+00
  VX=-4.407734170899743E-03 VY=-6.908603747792617E-03 VZ=-3.543576686086129E-03
Asteroid physical parameters (km, seconds, rotational period in hours):        
   GM= n.a.                RAD= 17.145             ROTPER= 12.085              
   H= 9.88                 G= .150                 B-V= .790                   
                           ALBEDO= .240            STYP= Sq                    
*******************************************************************************
JDTDB
   X     Y     Z
   VX    VY    VZ
*******************************************************************************
$$SOE
2460168.500000000 = A.D. 2023-Aug-12 00:00:00.0000 TDB 
 X =-3.620937002839822E+07 Y =-4.303879153391513E+08 Z =-5.522204985879296E+07
 VX= 1.765089416049731E+01 VY= 5.270368297872224E-01 VZ=-2.207623204282983E+00
$$EOE
*******************************************************************************
 
TIME

  Barycentric Dynamical Time ("TDB" or T_eph) output was requested. This
continuous coordinate time is equivalent to the relativistic proper time
of a clock at rest in a reference frame co-moving with the solar system
barycenter but outside the system's gravity well. It is the independent
variable in the solar system relativistic equations of motion.

  TDB runs at a uniform rate of one SI second per second and is independent
of irregularities in Earth's rotation.
 
CALENDAR SYSTEM

  Mixed calendar mode was active such that calendar dates after AD 1582-Oct-15
(if any) are in the modern Gregorian system. Dates prior to 1582-Oct-5 (if any)
are in the Julian calendar system, which is automatically extended for dates
prior to its adoption on 45-Jan-1 BC.  The Julian calendar is useful for
matching historical dates. The Gregorian calendar more accurately corresponds
to the Earth's orbital motion and seasons. A "Gregorian-only" calendar mode is
available if such physical events are the primary interest.

REFERENCE FRAME AND COORDINATES

  Ecliptic at the standard reference epoch

    Reference epoch: J2000.0
    X-Y plane: adopted Earth orbital plane at the reference epoch
               Note: IAU76 obliquity of 84381.448 arcseconds wrt ICRF X-Y plane
    X-axis   : ICRF
    Z-axis   : perpendicular to the X-Y plane in the directional (+ or -) sense
               of Earth's north pole at the reference epoch.

  Symbol meaning:

    JDTDB    Julian Day Number, Barycentric Dynamical Time
      X      X-component of position vector (km)
      Y      Y-component of position vector (km)
      Z      Z-component of position vector (km)
      VX     X-component of velocity vector (km/sec)                           
      VY     Y-component of velocity vector (km/sec)                           
      VZ     Z-component of velocity vector (km/sec)                           

ABERRATIONS AND CORRECTIONS

 Geometric state vectors have NO corrections or aberrations applied.

Computations by ...

    Solar System Dynamics Group, Horizons On-Line Ephemeris System
    4800 Oak Grove Drive, Jet Propulsion Laboratory
    Pasadena, CA  91109   USA

    General site: https://ssd.jpl.nasa.gov/
    Mailing list: https://ssd.jpl.nasa.gov/email_list.html
    System news : https://ssd.jpl.nasa.gov/horizons/news.html
    User Guide  : https://ssd.jpl.nasa.gov/horizons/manual.html
    Connect     : browser        https://ssd.jpl.nasa.gov/horizons/app.html#/x
                  API            https://ssd-api.jpl.nasa.gov/doc/horizons.html
                  command-line   telnet ssd.jpl.nasa.gov 6775
                  e-mail/batch   https://ssd.jpl.nasa.gov/ftp/ssd/hrzn_batch.txt
                  scripts        https://ssd.jpl.nasa.gov/ftp/ssd/SCRIPTS
    Author      : Jon.D.Giorgini@jpl.nasa.gov
*******************************************************************************
